{"type": "FeatureCollection", "features": [ {"type": "Feature", "properties": {"norad_id": 66668, "name": "TRANSPORTER-15C", "group": "last-30-days", "lat": 49.389258527366756, "lon": 63.88833420191387, "alt_km": 505.29829661043914, "timestamp": "2025-12-27T04:40:44.217545+00:00", "meta": {"OBJECT_NAME": "TRANSPORTER-15C", "OBJECT_ID": "2025-276C", "EPOCH": "2025-12-26T12:40:51.383136", "MEAN_MOTION": 15.21988406, "ECCENTRICITY": 0.0016178, "INCLINATION": 97.4332, "RA_OF_ASC_NODE": 71.9879, "ARG_OF_PERICENTER": 258.9437, "MEAN_ANOMALY": 100.9979, "EPHEMERIS_TYPE": 0, "CLASSIFICATION_TYPE": "U", "NORAD_CAT_ID": 66668, "ELEMENT_SET_NO": 999, "REV_AT_EPOCH": 421, "BSTAR": 0.00071782, "MEAN_MOTION_DOT": 0.00016393, "MEAN_MOTION_DDOT": 0}, "tle": {"line1": "1 66668U 25276C   25360.52837249  .00016393  00000+0  71782-3 0  9999", "line2": "2 66668  97.4332  71.9879 0016178 258.9437 100.9979 15.21988406  4210"}}, "geometry": {"type": "Point", "coordinates": [63.88833420191387, 49.389258527366756]}}, {"type": "Feature", "properties": {"norad_id": 66669, "name": "TRANSPORTER-15D", "group": "last-30-days", "lat": 31.01023213233809, "lon": 68.14657171636779, "alt_km": 515.3928478312619, "timestamp": "2025-12-27T04:40:44.217556+00:00", "meta": {"OBJECT_NAME": "TRANSPORTER-15D", "OBJECT_ID": "2025-276D", "EPOCH": "2025-12-26T04:48:12.178080", "MEAN_MOTION": 15.17501415, "ECCENTRICITY": 0.000747, "INCLINATION": 97.4282, "RA_OF_ASC_NODE": 71.6689, "ARG_OF_PERICENTER": 258.0077, "MEAN_ANOMALY": 102.032, "EPHEMERIS_TYPE": 0, "CLASSIFICATION_TYPE": "U", "NORAD_CAT_ID": 66669, "ELEMENT_SET_NO": 999, "REV_AT_EPOCH": 416, "BSTAR": 0.0012, "MEAN_MOTION_DOT": 0.00024063, "MEAN_MOTION_DDOT": 0}, "tle": {"line1": "1 66669U 25276D   25360.20014095  .00024063  00000+0  12000-2 0  9991", "line2": "2 66669  97.4282  71.6689 0007470 258.0077 102.0320 15.17501415  4160"}}, "geometry": {"type": "Point", "coordinates": [68.14657171636779, 31.01023213233809]}}, {"type": "Feature", "properties": {"norad_id": 66670, "name": "HUNITY", "group": "last-30-days", "lat": 26.56255557018028, "lon": 68.90552865815035, "alt_km": 515.9647207439239, "timestamp": "2025-12-27T04:40:44.217566+00:00", "meta": {"OBJECT_NAME": "HUNITY", "OBJECT_ID": "2025-276E", "EPOCH": "2025-12-26T19:03:55.660608", "MEAN_MOTION": 15.1744087, "ECCENTRICITY": 0.0007097, "INCLINATION": 97.4293, "RA_OF_ASC_NODE": 72.2531, "ARG_OF_PERICENTER": 255.1008, "MEAN_ANOMALY": 104.944, "EPHEMERIS_TYPE": 0, "CLASSIFICATION_TYPE": "U", "NORAD_CAT_ID": 66670, "ELEMENT_SET_NO": 999, "REV_AT_EPOCH": 425, "BSTAR": 0.0013401224, "MEAN_MOTION_DOT": 0.00026842, "MEAN_MOTION_DDOT": 0}, "tle": {"line1": "1 66670U 25276E   25360.79439422  .00026842  00000+0  13401-2 0  9995", "line2": "2 66670  97.4293  72.2531 0007097 255.1008 104.9440 15.17440870  4255"}}, "geometry": {"type": "Point", "coordinates": [68.90552865815035, 26.56255557018028]}}, {"type": "Feature", "properties": {"norad_id": 66671, "name": "TRANSPORTER-15F", "group": "last-30-days", "lat": 34.880689435200594, "lon": 67.46340461269686, "alt_km": 515.3831665977714, "timestamp": "2025-12-27T04:40:44.217576+00:00", "meta": {"OBJECT_NAME": "TRANSPORTER-15F", "OBJECT_ID": "2025-276F", "EPOCH": "2025-12-26T22:11:33.756864", "MEAN_MOTION": 15.17220359, "ECCENTRICITY": 0.00051807, "INCLINATION": 97.4417, "RA_OF_ASC_NODE": 72.4259, "ARG_OF_PERICENTER": 234.2251, "MEAN_ANOMALY": 125.8502, "EPHEMERIS_TYPE": 0, "CLASSIFICATION_TYPE": "U", "NORAD_CAT_ID": 66671, "ELEMENT_SET_NO": 999, "REV_AT_EPOCH": 427, "BSTAR": 0.00075974105, "MEAN_MOTION_DOT": 0.00015064, "MEAN_MOTION_DDOT": 0}, "tle": {"line1": "1 66671U 25276F   25360.92469626  .00015064  00000+0  75974-3 0  9998", "line2": "2 66671  97.4417  72.4259 0005180 234.2251 125.8502 15.17220359  4273"}}, "geometry": {"type": "Point", "coordinates": [67.46340461269686, 34.880689435200594]}}, {"type": "Feature", "properties": {"norad_id": 66672, "name": "TRANSPORTER-15G", "group": "last-30-days", "lat": 0.8286582933378571, "lon": 72.55933933324489, "alt_km": 521.3591251623502, "timestamp": "2025-12-27T04:40:44.217588+00:00", "meta": {"OBJECT_NAME": "TRANSPORTER-15G", "OBJECT_ID": "2025-276G", "EPOCH": "2025-12-26T22:20:29.652864", "MEAN_MOTION": 15.16664899, "ECCENTRICITY": 0.00055459, "INCLINATION": 97.4389, "RA_OF_ASC_NODE": 72.4086, "ARG_OF_PERICENTER": 231.6138, "MEAN_ANOMALY": 128.4597, "EPHEMERIS_TYPE": 0, "CLASSIFICATION_TYPE": "U", "NORAD_CAT_ID": 66672, "ELEMENT_SET_NO": 999, "REV_AT_EPOCH": 427, "BSTAR": 0.00049542218, "MEAN_MOTION_DOT": 9.639e-05, "MEAN_MOTION_DDOT": 0}, "tle": {"line1": "1 66672U 25276G   25360.93089876  .00009639  00000+0  49542-3 0  9998", "line2": "2 66672  97.4389  72.4086 0005545 231.6138 128.4597 15.16664899  4273"}}, "geometry": {"type": "Point", "coordinates": [72.55933933324489, 0.8286582933378571]}}, {"type": "Feature", "properties": {"norad_id": 66673, "name": "TRANSPORTER-15H", "group": "last-30-days", "lat": 69.05500475727979, "lon": 52.7295995633994, "alt_km": 506.193240696286, "timestamp": "2025-12-27T04:40:44.217598+00:00", "meta": {"OBJECT_NAME": "TRANSPORTER-15H", "OBJECT_ID": "2025-276H", "EPOCH": "2025-12-26T22:03:36.030528", "MEAN_MOTION": 15.22205308, "ECCENTRICITY": 0.00240337, "INCLINATION": 97.4367, "RA_OF_ASC_NODE": 72.4102, "ARG_OF_PERICENTER": 283.0296, "MEAN_ANOMALY": 76.8258, "EPHEMERIS_TYPE": 0, "CLASSIFICATION_TYPE": "U", "NORAD_CAT_ID": 66673, "ELEMENT_SET_NO": 999, "REV_AT_EPOCH": 427, "BSTAR": 0.0097849294, "MEAN_MOTION_DOT": 0.00233315, "MEAN_MOTION_DDOT": 0}, "tle": {"line1": "1 66673U 25276H   25360.91916702  .00233315  00000+0  97849-2 0  9996", "line2": "2 66673  97.4367  72.4102 0024033 283.0296  76.8258 15.22205308  4271"}}, "geometry": {"type": "Point", "coordinates": [52.7295995633994, 69.05500475727979]}}, {"type": "Feature", "properties": {"norad_id": 66674, "name": "TRANSPORTER-15J", "group": "last-30-days", "lat": 12.199885344921686, "lon": 71.04646526783533, "alt_km": 519.4804169360114, "timestamp": "2025-12-27T04:40:44.217610+00:00", "meta": {"OBJECT_NAME": "TRANSPORTER-15J", "OBJECT_ID": "2025-276J", "EPOCH": "2025-12-26T22:17:29.913216", "MEAN_MOTION": 15.16790037, "ECCENTRICITY": 0.00050928, "INCLINATION": 97.4366, "RA_OF_ASC_NODE": 72.4037, "ARG_OF_PERICENTER": 235.8454, "MEAN_ANOMALY": 124.2297, "EPHEMERIS_TYPE": 0, "CLASSIFICATION_TYPE": "U", "NORAD_CAT_ID": 66674, "ELEMENT_SET_NO": 999, "REV_AT_EPOCH": 427, "BSTAR": 0.00059989283, "MEAN_MOTION_DOT": 0.0001173, "MEAN_MOTION_DDOT": 0}, "tle": {"line1": "1 66674U 25276J   25360.92881844  .00011730  00000+0  59989-3 0  9995", "line2": "2 66674  97.4366  72.4037 0005092 235.8454 124.2297 15.16790037  4275"}}, "geometry": {"type": "Point", "coordinates": [71.04646526783533, 12.199885344921686]}}, {"type": "Feature", "properties": {"norad_id": 66675, "name": "TRANSPORTER-15K", "group": "last-30-days", "lat": 21.141874433852966, "lon": 69.77694816532025, "alt_km": 532.3849792420133, "timestamp": "2025-12-27T04:40:44.217620+00:00", "meta": {"OBJECT_NAME": "TRANSPORTER-15K", "OBJECT_ID": "2025-276K", "EPOCH": "2025-12-26T22:14:18.408480", "MEAN_MOTION": 15.14108486, "ECCENTRICITY": 0.00139861, "INCLINATION": 97.4377, "RA_OF_ASC_NODE": 72.4107, "ARG_OF_PERICENTER": 151.0165, "MEAN_ANOMALY": 209.1846, "EPHEMERIS_TYPE": 0, "CLASSIFICATION_TYPE": "U", "NORAD_CAT_ID": 66675, "ELEMENT_SET_NO": 999, "REV_AT_EPOCH": 427, "BSTAR": -0.095743954, "MEAN_MOTION_DOT": -0.0158873, "MEAN_MOTION_DDOT": 0}, "tle": {"line1": "1 66675U 25276K   25360.92660195 -.01588730  00000+0 -95744-1 0  9999", "line2": "2 66675  97.4377  72.4107 0013986 151.0165 209.1846 15.14108486  4277"}}, "geometry": {"type": "Point", "coordinates": [69.77694816532025, 21.141874433852966]}}, {"type": "Feature", "properties": {"norad_id": 66676, "name": "TRANSPORTER-15L", "group": "last-30-days", "lat": 26.42882742556846, "lon": 68.95521137075525, "alt_km": 506.56875357726494, "timestamp": "2025-12-27T04:40:44.217630+00:00", "meta": {"OBJECT_NAME": "TRANSPORTER-15L", "OBJECT_ID": "2025-276L", "EPOCH": "2025-12-26T22:15:03.790080", "MEAN_MOTION": 15.21479103, "ECCENTRICITY": 0.00200372, "INCLINATION": 97.4379, "RA_OF_ASC_NODE": 72.4133, "ARG_OF_PERICENTER": 249.3672, "MEAN_ANOMALY": 110.5415, "EPHEMERIS_TYPE": 0, "CLASSIFICATION_TYPE": "U", "NORAD_CAT_ID": 66676, "ELEMENT_SET_NO": 999, "REV_AT_EPOCH": 427, "BSTAR": 0.11277244, "MEAN_MOTION_DOT": 0.02822166, "MEAN_MOTION_DDOT": 0}, "tle": {"line1": "1 66676U 25276L   25360.92712720  .02822166  00000+0  11277+0 0  9992", "line2": "2 66676  97.4379  72.4133 0020037 249.3672 110.5415 15.21479103  4270"}}, "geometry": {"type": "Point", "coordinates": [68.95521137075525, 26.42882742556846]}}, {"type": "Feature", "properties": {"norad_id": 66677, "name": "TRANSPORTER-15M", "group": "last-30-days", "lat": 67.71014247560025, "lon": 54.10748376285565, "alt_km": 509.19151335700735, "timestamp": "2025-12-27T04:40:44.217640+00:00", "meta": {"OBJECT_NAME": "TRANSPORTER-15M", "OBJECT_ID": "2025-276M", "EPOCH": "2025-12-26T20:27:50.021856", "MEAN_MOTION": 15.17599992, "ECCENTRICITY": 0.00039208, "INCLINATION": 97.4376, "RA_OF_ASC_NODE": 72.3546, "ARG_OF_PERICENTER": 245.8526, "MEAN_ANOMALY": 114.2298, "EPHEMERIS_TYPE": 0, "CLASSIFICATION_TYPE": "U", "NORAD_CAT_ID": 66677, "ELEMENT_SET_NO": 999, "REV_AT_EPOCH": 426, "BSTAR": 0.00080307966, "MEAN_MOTION_DOT": 0.00016101, "MEAN_MOTION_DDOT": 0}, "tle": {"line1": "1 66677U 25276M   25360.85266229  .00016101  00000+0  80308-3 0  9990", "line2": "2 66677  97.4376  72.3546 0003920 245.8526 114.2298 15.17599992  4269"}}, "geometry": {"type": "Point", "coordinates": [54.10748376285565, 67.71014247560025]}}]}